{
  "type": "FeatureCollection",
  "features": [
    {
      "type": "Feature",
      "properties": {
        "norad_id": 34070,
        "name": "COSMOS 2251 DEB",
        "group": "cosmos-2251-debris",
        "lat": -45.86601739388543,
        "lon": 76.30272212633832,
        "alt_km": 646.4318295184376,
        "timestamp": "2025-12-24T07:45:06.592464+00:00",
        "meta_object_name": "COSMOS 2251 DEB",
        "meta_object_id": "1993-036KH",
        "meta_epoch": "2025-12-23T07:50:45.112128",
        "meta_mean_motion": 14.7736362,
        "meta_eccentricity": 0.00179391,
        "meta_inclination": 74.0018,
        "meta_ra_of_asc_node": 95.46,
        "meta_arg_of_pericenter": 212.5533,
        "meta_mean_anomaly": 203.4994,
        "meta_ephemeris_type": 0,
        "meta_classification_type": "U",
        "meta_norad_cat_id": 34070,
        "meta_element_set_no": 999,
        "meta_rev_at_epoch": 88767,
        "meta_bstar": 0.0024969578,
        "meta_mean_motion_dot": 0.00017813,
        "meta_mean_motion_ddot": 0,
        "tle_line1": "1 34070U 93036KH  25357.32691102  .00017813  00000+0  24970-2 0  9994",
        "tle_line2": "2 34070  74.0018  95.4600 0017939 212.5533 203.4994 14.77363620887676"
      },
      "geometry": {
        "type": "Point",
        "coordinates": [
          76.30272212633832,
          -45.86601739388543
        ]
      }
    },
    {
      "type": "Feature",
      "properties": {
        "norad_id": 34114,
        "name": "COSMOS 2251 DEB",
        "group": "cosmos-2251-debris",
        "lat": 13.996913551080828,
        "lon": 25.967856645693484,
        "alt_km": 671.0398390310029,
        "timestamp": "2025-12-24T07:45:06.592474+00:00",
        "meta_object_name": "COSMOS 2251 DEB",
        "meta_object_id": "1993-036KK",
        "meta_epoch": "2025-12-23T12:38:25.063008",
        "meta_mean_motion": 14.56514355,
        "meta_eccentricity": 0.00480583,
        "meta_inclination": 74.0582,
        "meta_ra_of_asc_node": 23.3905,
        "meta_arg_of_pericenter": 14.3515,
        "meta_mean_anomaly": 146.5714,
        "meta_ephemeris_type": 0,
        "meta_classification_type": "U",
        "meta_norad_cat_id": 34114,
        "meta_element_set_no": 999,
        "meta_rev_at_epoch": 87958,
        "meta_bstar": 0.0016805431,
        "meta_mean_motion_dot": 7.574e-05,
        "meta_mean_motion_ddot": 0,
        "tle_line1": "1 34114U 93036KK  25357.52667897  .00007574  00000+0  16805-2 0  9990",
        "tle_line2": "2 34114  74.0582  23.3905 0048058  14.3515 146.5714 14.56514355879581"
      },
      "geometry": {
        "type": "Point",
        "coordinates": [
          25.967856645693484,
          13.996913551080828
        ]
      }
    },
    {
      "type": "Feature",
      "properties": {
        "norad_id": 34115,
        "name": "COSMOS 2251 DEB",
        "group": "cosmos-2251-debris",
        "lat": 9.77203850068102,
        "lon": -138.06561481900542,
        "alt_km": 614.0060337782397,
        "timestamp": "2025-12-24T07:45:06.592484+00:00",
        "meta_object_name": "COSMOS 2251 DEB",
        "meta_object_id": "1993-036KL",
        "meta_epoch": "2025-12-22T08:38:51.353376",
        "meta_mean_motion": 14.79607286,
        "meta_eccentricity": 0.00289645,
        "meta_inclination": 74.0053,
        "meta_ra_of_asc_node": 222.9719,
        "meta_arg_of_pericenter": 43.6291,
        "meta_mean_anomaly": 316.7168,
        "meta_ephemeris_type": 0,
        "meta_classification_type": "U",
        "meta_norad_cat_id": 34115,
        "meta_element_set_no": 999,
        "meta_rev_at_epoch": 89554,
        "meta_bstar": 0.0009465402,
        "meta_mean_motion_dot": 7.118e-05,
        "meta_mean_motion_ddot": 0,
        "tle_line1": "1 34115U 93036KL  25356.36031659  .00007118  00000+0  94654-3 0  9996",
        "tle_line2": "2 34115  74.0053 222.9719 0028964  43.6291 316.7168 14.79607286895544"
      },
      "geometry": {
        "type": "Point",
        "coordinates": [
          -138.06561481900542,
          9.77203850068102
        ]
      }
    },
    {
      "type": "Feature",
      "properties": {
        "norad_id": 34116,
        "name": "COSMOS 2251 DEB",
        "group": "cosmos-2251-debris",
        "lat": -49.73239959446109,
        "lon": 141.18119283084897,
        "alt_km": 719.5129600839164,
        "timestamp": "2025-12-24T07:45:06.592495+00:00",
        "meta_object_name": "COSMOS 2251 DEB",
        "meta_object_id": "1993-036KM",
        "meta_epoch": "2025-12-23T10:38:38.194368",
        "meta_mean_motion": 14.53036158,
        "meta_eccentricity": 0.00117847,
        "meta_inclination": 74.0396,
        "meta_ra_of_asc_node": 162.5854,
        "meta_arg_of_pericenter": 238.6047,
        "meta_mean_anomaly": 150.107,
        "meta_ephemeris_type": 0,
        "meta_classification_type": "U",
        "meta_norad_cat_id": 34116,
        "meta_element_set_no": 999,
        "meta_rev_at_epoch": 88642,
        "meta_bstar": 0.0007775515,
        "meta_mean_motion_dot": 3.187e-05,
        "meta_mean_motion_ddot": 0,
        "tle_line1": "1 34116U 93036KM  25357.44349762  .00003187  00000+0  77755-3 0  9999",
        "tle_line2": "2 34116  74.0396 162.5854 0011784 238.6047 150.1070 14.53036158886426"
      },
      "geometry": {
        "type": "Point",
        "coordinates": [
          141.18119283084897,
          -49.73239959446109
        ]
      }
    },
    {
      "type": "Feature",
      "properties": {
        "norad_id": 34117,
        "name": "COSMOS 2251 DEB",
        "group": "cosmos-2251-debris",
        "lat": -44.213158892560855,
        "lon": -53.739582234703576,
        "alt_km": 758.9544375137275,
        "timestamp": "2025-12-24T07:45:06.592505+00:00",
        "meta_object_name": "COSMOS 2251 DEB",
        "meta_object_id": "1993-036KN",
        "meta_epoch": "2025-12-23T23:37:47.139168",
        "meta_mean_motion": 14.40055256,
        "meta_eccentricity": 0.00550163,
        "meta_inclination": 74.0395,
        "meta_ra_of_asc_node": 323.052,
        "meta_arg_of_pericenter": 36.2731,
        "meta_mean_anomaly": 324.2133,
        "meta_ephemeris_type": 0,
        "meta_classification_type": "U",
        "meta_norad_cat_id": 34117,
        "meta_element_set_no": 999,
        "meta_rev_at_epoch": 88285,
        "meta_bstar": 0.00064828578,
        "meta_mean_motion_dot": 2.055e-05,
        "meta_mean_motion_ddot": 0,
        "tle_line1": "1 34117U 93036KN  25357.98457337  .00002055  00000+0  64829-3 0  9998",
        "tle_line2": "2 34117  74.0395 323.0520 0055016  36.2731 324.2133 14.40055256882851"
      },
      "geometry": {
        "type": "Point",
        "coordinates": [
          -53.739582234703576,
          -44.213158892560855
        ]
      }
    },
    {
      "type": "Feature",
      "properties": {
        "norad_id": 34118,
        "name": "COSMOS 2251 DEB",
        "group": "cosmos-2251-debris",
        "lat": 56.396407159287655,
        "lon": 20.184629464656712,
        "alt_km": 562.0338452580809,
        "timestamp": "2025-12-24T07:45:06.592515+00:00",
        "meta_object_name": "COSMOS 2251 DEB",
        "meta_object_id": "1993-036KP",
        "meta_epoch": "2025-12-23T21:38:31.938720",
        "meta_mean_motion": 14.94292011,
        "meta_eccentricity": 0.00601439,
        "meta_inclination": 73.9505,
        "meta_ra_of_asc_node": 226.71,
        "meta_arg_of_pericenter": 54.0866,
        "meta_mean_anomaly": 320.0837,
        "meta_ephemeris_type": 0,
        "meta_classification_type": "U",
        "meta_norad_cat_id": 34118,
        "meta_element_set_no": 999,
        "meta_rev_at_epoch": 89343,
        "meta_bstar": 0.0014182977,
        "meta_mean_motion_dot": 0.00015786,
        "meta_mean_motion_ddot": 0,
        "tle_line1": "1 34118U 93036KP  25357.90175855  .00015786  00000+0  14183-2 0  9995",
        "tle_line2": "2 34118  73.9505 226.7100 0060143  54.0866 320.0837 14.94292011893432"
      },
      "geometry": {
        "type": "Point",
        "coordinates": [
          20.184629464656712,
          56.396407159287655
        ]
      }
    },
    {
      "type": "Feature",
      "properties": {
        "norad_id": 34120,
        "name": "COSMOS 2251 DEB",
        "group": "cosmos-2251-debris",
        "lat": 26.170810889666164,
        "lon": 8.045706764749688,
        "alt_km": 983.261113638544,
        "timestamp": "2025-12-24T07:45:06.592525+00:00",
        "meta_object_name": "COSMOS 2251 DEB",
        "meta_object_id": "1993-036KR",
        "meta_epoch": "2025-12-23T22:59:13.400736",
        "meta_mean_motion": 13.98695984,
        "meta_eccentricity": 0.01824391,
        "meta_inclination": 73.9902,
        "meta_ra_of_asc_node": 196.7893,
        "meta_arg_of_pericenter": 21.9884,
        "meta_mean_anomaly": 90.8407,
        "meta_ephemeris_type": 0,
        "meta_classification_type": "U",
        "meta_norad_cat_id": 34120,
        "meta_element_set_no": 999,
        "meta_rev_at_epoch": 86137,
        "meta_bstar": 0.00028868184,
        "meta_mean_motion_dot": 4.54e-06,
        "meta_mean_motion_ddot": 0,
        "tle_line1": "1 34120U 93036KR  25357.95779399  .00000454  00000+0  28868-3 0  9998",
        "tle_line2": "2 34120  73.9902 196.7893 0182439  21.9884  90.8407 13.98695984861379"
      },
      "geometry": {
        "type": "Point",
        "coordinates": [
          8.045706764749688,
          26.170810889666164
        ]
      }
    }
  ]
}